STARLINK-30282          
1 57883U 23144V   26068.04325904  .00010945  00000+0  41723-3 0  9992
2 57883  43.0010 288.4148 0001358 272.5421  87.5275 15.26729095137546
FLOCK 4G-9              
1 62622U 25009P   26068.80935633  .00010752  00000+0  41817-3 0  9991
2 62622  97.4000 150.6115 0003614 328.2191  31.8829 15.26202239 63696
